OBJECT_NAME,OBJECT_ID,EPOCH,MEAN_MOTION,ECCENTRICITY,INCLINATION,RA_OF_ASC_NODE,ARG_OF_PERICENTER,MEAN_ANOMALY,EPHEMERIS_TYPE,CLASSIFICATION_TYPE,NORAD_CAT_ID,ELEMENT_SET_NO,REV_AT_EPOCH,BSTAR,MEAN_MOTION_DOT,MEAN_MOTION_DDOT
DUCHIFAT-1,2014-033M,2026-07-06T16:39:29.773440,15.69242725,.00011489,98.0433,249.6610,272.1888,87.9241,0,U,40021,999,65880,.10017574E-2,.117855E-2,0
NANOSATC-BR1,2014-033Q,2026-07-07T07:48:47.141568,15.32146748,.00052693,98.0715,222.5062,115.7199,244.4585,0,U,40024,999,65706,.398399E-3,.12288E-3,0
QB50P1,2014-033R,2026-07-06T23:39:44.400384,15.18579991,.00097754,98.0969,200.5237,149.2946,210.8860,0,U,40025,999,65603,.32909575E-3,.6736E-4,0
DTUSAT-2,2014-033W,2026-07-06T22:02:28.280832,15.15282505,.00086954,98.0877,186.9019,156.2531,203.9103,0,U,40030,999,65567,.26425039E-3,.4903E-4,0
QB50P2,2014-033Y,2026-07-07T10:32:09.903264,15.15438659,.00093529,98.0762,186.5837,105.2659,254.9607,0,U,40032,999,65573,.23683033E-3,.4406E-4,0
PERSEUS-M1,2014-033AF,2026-07-07T07:22:24.093984,14.95695464,.00104592,97.9646,132.7706,225.6574,134.3790,0,U,40039,999,65364,.12442973E-3,.1325E-4,0
POLYITAN-1,2014-033AJ,2026-07-07T00:25:55.036704,15.34009336,.00084453,98.0940,216.1644,87.2204,273.0003,0,U,40042,999,65663,.45002715E-3,.14746E-3,0
TIGRISAT,2014-033AK,2026-07-06T22:09:32.658624,14.85232145,.00493576,97.7856,337.4856,11.5693,348.6644,0,U,40043,999,64855,.18431606E-3,.156E-4,0
CANX-4,2014-034C,2026-07-06T14:32:57.696576,14.81300885,.00117645,98.3097,63.6301,313.3306,46.6924,0,U,40055,999,64740,.12484478E-3,.917E-5,0
CANX-5,2014-034D,2026-07-07T01:51:15.816096,14.81318663,.001173,98.3099,64.1631,311.9106,48.1105,0,U,40056,999,63828,.10969486E-3,.799E-5,0
GONETS-M 10,2014-036C,2026-07-07T14:18:36.476064,12.42946153,.0022996,82.5123,294.9988,98.1624,262.2066,0,U,40063,999,54478,.44831031E-4,.16E-6,0
METEOR-M 2,2014-037A,2026-07-07T15:05:50.697600,14.21467681,.00056371,98.5130,163.6443,350.3599,9.7470,0,U,40069,999,62222,.93057235E-4,.161E-5,0
DX1,2014-037C,2026-07-07T13:47:46.046400,14.90047718,.00065072,98.3877,151.5151,195.7339,164.3676,0,U,40071,999,64914,.15534345E-3,.1437E-4,0
UKUBE-1,2014-037F,2026-07-07T11:05:31.290144,15.13873030,.0003346,98.4246,193.8687,101.4516,258.7088,0,U,40074,999,65162,.27440279E-3,.4886E-4,0
GAOFEN-2,2014-049A,2026-07-07T13:57:33.754752,14.80921582,.00076723,98.0094,252.7690,156.8901,203.2657,0,U,40118,999,64225,.38273343E-4,.243E-5,0
BRITE-PL2 (HEWELIUSZ),2014-049B,2026-07-07T06:09:30.308256,14.94668605,.00148831,97.9109,300.4136,47.9370,312.3113,0,U,40119,999,64444,.18559605E-3,.1956E-4,0
CBERS 4,2014-079A,2026-07-07T14:22:54.819840,14.35515833,.00011273,98.3516,244.7899,49.1568,310.9716,0,U,40336,999,60688,.12000613E-3,.303E-5,0
SMAP,2015-003A,2026-07-07T14:13:27.162336,14.63384765,.00015396,98.1279,195.3983,97.0586,263.0791,0,U,40376,999,61060,.77938481E-4,.356E-5,0
GONETS-M 11,2015-020A,2026-07-07T14:46:39.554112,12.42877794,.00156584,82.4865,18.2594,320.8291,39.1654,0,U,40552,999,51127,-.61263461E-3,-.75E-6,0
GONETS-M 12,2015-020B,2026-07-07T14:08:10.067424,12.42892028,.00144385,82.4897,19.4053,305.1214,54.8511,0,U,40553,999,51126,.46883263E-3,.75E-6,0
GONETS-M 13,2015-020C,2026-07-07T13:30:28.294272,12.42871799,.00128914,82.4860,18.0306,289.4025,70.5661,0,U,40554,999,51123,.50050487E-3,.79E-6,0
DMC3-FM1,2015-032A,2026-07-07T14:40:48.015840,14.85761483,.00056658,97.6436,52.9827,3.1434,356.9816,0,U,40715,999,59294,-.4844743E-5,-.93E-6,0
DMC3-FM2,2015-032B,2026-07-07T13:35:27.572640,14.85766378,.00063002,97.6487,54.5266,6.5172,353.6124,0,U,40716,999,59293,.929323E-5,.29E-6,0
DMC3-FM3,2015-032C,2026-07-07T14:09:15.604416,14.85757892,.00054795,97.6539,56.3151,9.1306,351.0008,0,U,40717,999,59294,.85480352E-4,.691E-5,0
CARBONITE 1 (CBNT-1),2015-032D,2026-07-07T14:50:06.782784,14.83652662,.00132731,97.6523,5.8305,223.6233,136.3933,0,U,40718,999,59237,.14115083E-3,.1116E-4,0
LILACSAT-2,2015-049K,2026-07-07T14:02:10.838688,15.52160922,.00077632,97.4628,226.2078,164.5444,195.6047,0,U,40908,999,59891,.22646229E-3,.13623E-3,0
