DUCHIFAT-1              
1 40021U 14033M   26187.69409460  .00117855  00000+0  10018-2 0  9998
2 40021  98.0433 249.6610 0001148 272.1888  87.9241 15.69242725658805
NANOSATC-BR1            
1 40024U 14033Q   26188.32554562  .00012288  00000+0  39840-3 0  9995
2 40024  98.0715 222.5062 0005269 115.7199 244.4585 15.32146748657063
QB50P1                  
1 40025U 14033R   26187.98593056  .00006736  00000+0  32910-3 0  9990
2 40025  98.0969 200.5237 0009775 149.2946 210.8860 15.18579991656036
DTUSAT-2                
1 40030U 14033W   26187.91838288  .00004903  00000+0  26425-3 0  9996
2 40030  98.0877 186.9019 0008695 156.2531 203.9103 15.15282505655674
QB50P2                  
1 40032U 14033Y   26188.43900351  .00004406  00000+0  23683-3 0  9998
2 40032  98.0762 186.5837 0009352 105.2659 254.9607 15.15438659655734
PERSEUS-M1              
1 40039U 14033AF  26188.30722331  .00001325  00000+0  12443-3 0  9990
2 40039  97.9646 132.7706 0010459 225.6574 134.3790 14.95695464653649
POLYITAN-1              
1 40042U 14033AJ  26188.01799811  .00014746  00000+0  45003-3 0  9998
2 40042  98.0940 216.1644 0008445  87.2204 273.0003 15.34009336656635
TIGRISAT                
1 40043U 14033AK  26187.92329466  .00001560  00000+0  18432-3 0  9999
2 40043  97.7856 337.4856 0049357  11.5693 348.6644 14.85232145648552
CANX-4                  
1 40055U 14034C   26187.60622334  .00000917  00000+0  12484-3 0  9994
2 40055  98.3097  63.6301 0011764 313.3306  46.6924 14.81300885647409
CANX-5                  
1 40056U 14034D   26188.07726639  .00000799  00000+0  10969-3 0  9994
2 40056  98.3099  64.1631 0011730 311.9106  48.1105 14.81318663638286
GONETS-M 10             
1 40063U 14036C   26188.59625551  .00000016  00000+0  44831-4 0  9990
2 40063  82.5123 294.9988 0022996  98.1624 262.2066 12.42946153544782
METEOR-M 2              
1 40069U 14037A   26188.62905900  .00000161  00000+0  93057-4 0  9995
2 40069  98.5130 163.6443 0005637 350.3599   9.7470 14.21467681622220
DX1                     
1 40071U 14037C   26188.57483850  .00001437  00000+0  15534-3 0  9997
2 40071  98.3877 151.5151 0006507 195.7339 164.3676 14.90047718649148
UKUBE-1                 
1 40074U 14037F   26188.46216771  .00004886  00000+0  27440-3 0  9994
2 40074  98.4246 193.8687 0003346 101.4516 258.7088 15.13873030651625
GAOFEN-2                
1 40118U 14049A   26188.58164068  .00000243  00000+0  38273-4 0  9990
2 40118  98.0094 252.7690 0007672 156.8901 203.2657 14.80921582642253
BRITE-PL2 (HEWELIUSZ)   
1 40119U 14049B   26188.25660079  .00001956  00000+0  18560-3 0  9996
2 40119  97.9109 300.4136 0014883  47.9370 312.3113 14.94668605644448
CBERS 4                 
1 40336U 14079A   26188.59924560  .00000303  00000+0  12001-3 0  9994
2 40336  98.3516 244.7899 0001127  49.1568 310.9716 14.35515833606880
SMAP                    
1 40376U 15003A   26188.59267549  .00000356  00000+0  77938-4 0  9992
2 40376  98.1279 195.3983 0001539  97.0586 263.0791 14.63384765610607
GONETS-M 11             
1 40552U 15020A   26188.61573558 -.00000075  00000+0 -61263-3 0  9993
2 40552  82.4865  18.2594 0015658 320.8291  39.1654 12.42877794511275
GONETS-M 12             
1 40553U 15020B   26188.58900541  .00000075  00000+0  46883-3 0  9995
2 40553  82.4897  19.4053 0014438 305.1214  54.8511 12.42892028511262
GONETS-M 13             
1 40554U 15020C   26188.56282748  .00000079  00000+0  50050-3 0  9991
2 40554  82.4860  18.0306 0012891 289.4025  70.5661 12.42871799511234
DMC3-FM1                
1 40715U 15032A   26188.61166685 -.00000093  00000+0 -48447-5 0  9997
2 40715  97.6436  52.9827 0005665   3.1434 356.9816 14.85761483592948
DMC3-FM2                
1 40716U 15032B   26188.56629135  .00000029  00000+0  92932-5 0  9991
2 40716  97.6487  54.5266 0006300   6.5172 353.6124 14.85766378592936
DMC3-FM3                
1 40717U 15032C   26188.58976394  .00000691  00000+0  85480-4 0  9990
2 40717  97.6539  56.3151 0005479   9.1306 351.0008 14.85757892592947
CARBONITE 1 (CBNT-1)    
1 40718U 15032D   26188.61813406  .00001116  00000+0  14115-3 0  9998
2 40718  97.6523   5.8305 0013273 223.6233 136.3933 14.83652662592379
LILACSAT-2              
1 40908U 15049K   26188.58484767  .00013623  00000+0  22646-3 0  9991
2 40908  97.4628 226.2078 0007763 164.5444 195.6047 15.52160922598914
